FENGYUN 1C DEB          
1 36712U 99025EAJ 17345.34743673  .00001708  00000-0  40419-3 0  9998
2 36712  98.9496 188.2422 0056160 165.8339 194.4446 14.54583091488794
